[{"OBJECT_NAME":"STARLINK-35944","OBJECT_ID":"2025-286D","EPOCH":"2026-03-09T22:53:36.449376","MEAN_MOTION":15.30228299,"ECCENTRICITY":8.733e-5,"INCLINATION":53.1605,"RA_OF_ASC_NODE":357.4787,"ARG_OF_PERICENTER":91.1296,"MEAN_ANOMALY":268.9804,"EPHEMERIS_TYPE":0,"CLASSIFICATION_TYPE":"U","NORAD_CAT_ID":66928,"ELEMENT_SET_NO":999,"REV_AT_EPOCH":1545,"BSTAR":0.0015069631,"MEAN_MOTION_DOT":0.0004458,"MEAN_MOTION_DDOT":0},{"OBJECT_NAME":"CZ-6A DEB","OBJECT_ID":"2022-151NB","EPOCH":"2026-03-09T18:26:17.609568","MEAN_MOTION":15.22372787,"ECCENTRICITY":0.00267955,"INCLINATION":98.6489,"RA_OF_ASC_NODE":154.0342,"ARG_OF_PERICENTER":180.4296,"MEAN_ANOMALY":179.6918,"EPHEMERIS_TYPE":0,"CLASSIFICATION_TYPE":"U","NORAD_CAT_ID":54601,"ELEMENT_SET_NO":999,"REV_AT_EPOCH":17694,"BSTAR":0.011449911,"MEAN_MOTION_DOT":0.00276508,"MEAN_MOTION_DDOT":0}]
